NORAD_CAT_ID,OBJECT_NAME,OBJECT_TYPE,EPOCH,MEAN_MOTION,ECCENTRICITY,INCLINATION,RA_OF_ASC_NODE,ARG_OF_PERICENTER,MEAN_ANOMALY,BSTAR,MEAN_MOTION_DOT,MEAN_MOTION_DDOT,TLE_LINE0,TLE_LINE1,TLE_LINE2,SEMIMAJOR_AXIS,PERIOD,APOGEE,PERIGEE,DECAYED
53604.0,STARLINK-4690,PAYLOAD,2024-04-26 03:05:57,15.0884625,0.0001397,53.2176,63.1062,126.8034,233.3086,-2.7247e-05,-7.22e-06,0.0,0 STARLINK-4690,1 53604U 22104S   24117.12913201 -.00000722  00000-0 -27247-4 0  9990,2 53604  53.2176  63.1062 0001397 126.8034 233.3086 15.08846250 92641,6917.861,95.437,540.693,538.76,0.0
53604.0,STARLINK-4690,PAYLOAD,2024-04-27 02:56:43,15.08843236,0.0001185,53.2183,58.6514,90.627,269.4857,0.00018047,2.586e-05,0.0,0 STARLINK-4690,1 53604U 22104S   24118.12272976  .00002586  00000-0  18047-3 0  9993,2 53604  53.2183  58.6514 0001185  90.6270 269.4857 15.08843236 92103,6917.87,95.437,540.555,538.916,0.0
53604.0,STARLINK-4690,PAYLOAD,2024-04-27 12:29:01,15.08860702,0.0001204,53.2181,56.864,102.7108,257.4019,0.00024699,3.647e-05,0.0,0 STARLINK-4690,1 53604U 22104S   24118.52015135  .00003647  00000-0  24699-3 0  9998,2 53604  53.2181  56.8640 0001204 102.7108 257.4019 15.08860702 92168,6917.817,95.436,540.515,538.849,0.0
53604.0,STARLINK-4690,PAYLOAD,2024-04-27 20:25:59,15.08832886,0.000247,53.2186,55.3808,80.1468,279.9803,-2.5536e-05,-6.95e-06,0.0,0 STARLINK-4690,1 53604U 22104S   24118.85138301 -.00000695  00000-0 -25536-4 0  9999,2 53604  53.2186  55.3808 0002470  80.1468 279.9803 15.08832886 92215,6917.902,95.438,541.476,538.058,0.0
53604.0,STARLINK-4690,PAYLOAD,2024-04-28 02:47:33,15.08820111,0.0001368,53.2196,54.1939,97.1548,262.96,-0.00013873,-2.494e-05,0.0,0 STARLINK-4690,1 53604U 22104S   24119.11635468 -.00002494  00000-0 -13873-3 0  9994,2 53604  53.2196  54.1939 0001368  97.1548 262.9600 15.08820111 92259,6917.941,95.439,540.753,538.86,0.0
53604.0,STARLINK-4690,PAYLOAD,2024-04-28 12:19:51,15.08831762,0.0001427,53.2204,52.4073,88.9228,271.1928,-2.0701e-05,-6.17e-06,0.0,0 STARLINK-4690,1 53604U 22104S   24119.51378695 -.00000617  00000-0 -20701-4 0  9998,2 53604  53.2204  52.4073 0001427  88.9228 271.1928 15.08831762 92314,6917.906,95.438,540.758,538.783,0.0
53604.0,STARLINK-4690,PAYLOAD,2024-04-29 04:13:42,15.08836317,0.0001389,53.2177,49.4351,82.5589,277.5561,6.4283e-05,7.35e-06,0.0,0 STARLINK-4690,1 53604U 22104S   24120.17618361  .00000735  00000-0  64283-4 0  9991,2 53604  53.2177  49.4351 0001389  82.5589 277.5561 15.08836317 92410,6917.892,95.438,540.718,538.796,0.0
53604.0,STARLINK-4690,PAYLOAD,2024-04-29 12:10:36,15.0886811,0.0001224,53.218,47.9463,85.7191,274.3941,0.00035692,5.401e-05,0.0,0 STARLINK-4690,1 53604U 22104S   24120.50736284  .00005401  00000-0  35692-3 0  9999,2 53604  53.2180  47.9463 0001224  85.7191 274.3941 15.08868110 92461,6917.794,95.436,540.506,538.813,0.0
53604.0,STARLINK-4690,PAYLOAD,2024-04-30 04:04:30,15.0882091,0.0001549,53.2184,44.9744,93.0256,267.0913,8.9722e-05,1.14e-05,0.0,0 STARLINK-4690,1 53604U 22104S   24121.16979569  .00001140  00000-0  89722-4 0  9997,2 53604  53.2184  44.9744 0001549  93.0256 267.0913 15.08820910 92563,6917.939,95.439,540.875,538.732,0.0
53604.0,STARLINK-4690,PAYLOAD,2024-04-30 12:01:25,15.08829465,0.0001472,53.2166,43.4875,90.23,269.8861,-5.6238e-06,-3.77e-06,0.0,0 STARLINK-4690,1 53604U 22104S   24121.50099190 -.00000377  00000-0 -56238-5 0  9998,2 53604  53.2166  43.4875 0001472  90.2300 269.8861 15.08829465 92618,6917.913,95.438,540.796,538.759,0.0
53604.0,STARLINK-4690,PAYLOAD,2024-05-01 02:19:53,15.08846447,0.0001505,53.2165,40.8096,94.2084,265.908,0.00083437,0.00013018,0.0,0 STARLINK-4690,1 53604U 22104S   24122.09715138  .00013018  00000-0  83437-3 0  9993,2 53604  53.2165  40.8096 0001505  94.2084 265.9080 15.08846447 92702,6917.861,95.437,540.767,538.685,0.0
53604.0,STARLINK-4690,PAYLOAD,2024-05-01 11:52:12,15.08862887,0.000149,53.2163,39.0248,95.6084,264.5078,0.0010945,0.00017185,0.0,0 STARLINK-4690,1 53604U 22104S   24122.49458655  .00017185  00000-0  10945-2 0  9997,2 53604  53.2163  39.0248 0001490  95.6084 264.5078 15.08862887 93458,6917.81,95.436,540.706,538.645,0.0
53604.0,STARLINK-4690,PAYLOAD,2024-05-02 00:35:17,15.08861215,0.0002033,53.2161,36.6459,88.1351,271.9874,0.00063438,9.828e-05,0.0,0 STARLINK-4690,1 53604U 22104S   24123.02450439  .00009828  00000-0  63438-3 0  9990,2 53604  53.2161  36.6459 0002033  88.1351 271.9874 15.08861215 92843,6917.816,95.436,541.087,538.274,0.0
53604.0,STARLINK-4690,PAYLOAD,2024-05-02 11:42:58,15.08864844,0.0001556,53.2162,34.5651,86.0625,274.0545,0.0010301,0.00016155,0.0,0 STARLINK-4690,1 53604U 22104S   24123.48818039  .00016155  00000-0  10301-2 0  9995,2 53604  53.2162  34.5651 0001556  86.0625 274.0545 15.08864844 93600,6917.804,95.436,540.746,538.593,0.0
53604.0,STARLINK-4690,PAYLOAD,2024-05-02 21:15:17,15.08850352,0.0001615,53.2167,32.7772,103.2587,256.8586,0.00051326,7.892e-05,0.0,0 STARLINK-4690,1 53604U 22104S   24123.88561909  .00007892  00000-0  51326-3 0  9991,2 53604  53.2167  32.7772 0001615 103.2587 256.8586 15.08850352 92975,6917.849,95.437,540.831,538.597,0.0
53604.0,STARLINK-4690,PAYLOAD,2024-05-03 03:36:50,15.08854221,0.0001402,53.2173,31.5908,91.1787,268.9366,0.0017022,0.00026917,0.0,0 STARLINK-4690,1 53604U 22104S   24124.15057969  .00026917  00000-0  17022-2 0  9991,2 53604  53.2173  31.5908 0001402  91.1787 268.9366 15.08854221 93702,6917.837,95.437,540.672,538.732,0.0
53604.0,STARLINK-4690,PAYLOAD,2024-05-03 21:06:05,15.08818551,0.00011,53.2166,28.32,49.9097,310.1992,0.00021345,3.109e-05,0.0,0 STARLINK-4690,1 53604U 22104S   24124.87922704  .00003109  00000-0  21345-3 0  9990,2 53604  53.2166  28.3200 0001100  49.9097 310.1992 15.08818551 93120,6917.946,95.439,540.572,539.05,0.0
53604.0,STARLINK-4690,PAYLOAD,2024-05-03 22:41:28,15.08823562,0.0001286,53.2163,28.022,53.8599,306.2512,-6.8557e-05,-1.378e-05,0.0,0 STARLINK-4690,1 53604U 22104S   24124.94546782 -.00001378  00000-0 -68557-4 0  9991,2 53604  53.2163  28.0220 0001286  53.8599 306.2512 15.08823562 93821,6917.931,95.439,540.685,538.906,0.0
53604.0,STARLINK-4690,PAYLOAD,2024-05-04 20:56:52,15.0884787,0.0001248,53.2177,23.8595,108.9092,251.2036,0.0012592,0.00019813,0.0,0 STARLINK-4690,1 53604U 22104S   24125.87283184  .00019813  00000-0  12592-2 0  9995,2 53604  53.2177  23.8595 0001248 108.9092 251.2036 15.08847870 93279,6917.856,95.437,540.585,538.858,0.0
53604.0,STARLINK-4690,PAYLOAD,2024-05-05 00:07:38,15.08854765,0.0001216,53.218,23.2654,107.8908,252.2217,0.0014302,0.00022556,0.0,0 STARLINK-4690,1 53604U 22104S   24126.00531061  .00022556  00000-0  14302-2 0  9990,2 53604  53.2180  23.2654 0001216 107.8908 252.2217 15.08854765 93983,6917.835,95.437,540.541,538.859,0.0
53604.0,STARLINK-4690,PAYLOAD,2024-05-05 20:47:39,15.08855335,0.0001207,53.2177,19.3991,107.7883,252.3241,0.00034213,5.164e-05,0.0,0 STARLINK-4690,1 53604U 22104S   24126.86642519  .00005164  00000-0  34213-3 0  9995,2 53604  53.2177  19.3991 0001207 107.7883 252.3241 15.08855335 93421,6917.834,95.437,540.533,538.864,0.0
53604.0,STARLINK-4690,PAYLOAD,2024-05-05 22:23:02,15.08850298,0.0001368,53.2182,19.1041,114.5655,245.5479,0.00033662,5.075e-05,0.0,0 STARLINK-4690,1 53604U 22104S   24126.93266617  .00005075  00000-0  33662-3 0  9992,2 53604  53.2182  19.1041 0001368 114.5655 245.5479 15.08850298 94120,6917.849,95.437,540.66,538.768,0.0
53604.0,STARLINK-4690,PAYLOAD,2024-05-06 09:30:43,15.08868138,0.0001251,53.2184,17.021,99.415,260.6984,0.00077148,0.00012021,0.0,0 STARLINK-4690,1 53604U 22104S   24127.39633941  .00012021  00000-0  77148-3 0  9997,2 53604  53.2184  17.0210 0001251  99.4150 260.6984 15.08868138 94197,6917.794,95.436,540.525,538.794,0.0
53604.0,STARLINK-4690,PAYLOAD,2024-05-06 22:13:49,15.08851286,0.0002116,53.2184,14.6445,95.9686,264.1548,0.00031631,4.751e-05,0.0,0 STARLINK-4690,1 53604U 22104S   24127.92626216  .00004751  00000-0  31631-3 0  9991,2 53604  53.2184  14.6445 0002116  95.9686 264.1548 15.08851286 94276,6917.846,95.437,541.175,538.247,0.0
53604.0,STARLINK-4690,PAYLOAD,2024-05-07 02:59:58,15.08849053,0.0001707,53.2179,13.7476,91.0861,269.0327,5.5242e-05,5.91e-06,0.0,0 STARLINK-4690,1 53604U 22104S   24128.12497982  .00000591  00000-0  55242-4 0  9993,2 53604  53.2179  13.7476 0001707  91.0861 269.0327 15.08849053 93616,6917.853,95.437,540.899,538.537,0.0
53604.0,STARLINK-4690,PAYLOAD,2024-05-07 09:21:30,15.0886376,0.0001366,53.2185,12.561,81.9292,278.1856,0.00028713,4.288e-05,0.0,0 STARLINK-4690,1 53604U 22104S   24128.38993182  .00004288  00000-0  28713-3 0  9993,2 53604  53.2185  12.5610 0001366  81.9292 278.1856 15.08863760 93650,6917.808,95.436,540.618,538.728,0.0
53604.0,STARLINK-4690,PAYLOAD,2024-05-07 20:29:13,15.08827457,0.0001219,53.2198,10.4782,84.1559,275.9572,-0.00017471,-3.066e-05,0.0,0 STARLINK-4690,1 53604U 22104S   24128.85362866 -.00003066  00000-0 -17471-3 0  9998,2 53604  53.2198  10.4782 0001219  84.1559 275.9572 15.08827457 93720,6917.919,95.438,540.627,538.94,0.0
53604.0,STARLINK-4690,PAYLOAD,2024-05-07 22:04:36,15.08828789,0.0001494,53.2191,10.1825,90.8204,269.2959,-0.00020893,-3.611e-05,0.0,0 STARLINK-4690,1 53604U 22104S   24128.91986813 -.00003611  00000-0 -20893-3 0  9997,2 53604  53.2191  10.1825 0001494  90.8204 269.2959 15.08828789 94426,6917.915,95.438,540.813,538.746,0.0
53604.0,STARLINK-4690,PAYLOAD,2024-05-08 09:12:18,15.08840521,0.0001272,53.2179,8.1008,84.373,275.7407,0.00019926,2.885e-05,0.0,0 STARLINK-4690,1 53604U 22104S   24129.38354427  .00002885  00000-0  19926-3 0  9994,2 53604  53.2179   8.1008 0001272  84.3730 275.7407 15.08840521 93807,6917.879,95.438,540.624,538.864,0.0
53604.0,STARLINK-4690,PAYLOAD,2024-05-08 20:20:00,15.08832193,0.0001262,53.2175,6.02,84.1366,275.977,0.00034262,5.168e-05,0.0,0 STARLINK-4690,1 53604U 22104S   24129.84723119  .00005168  00000-0  34262-3 0  9990,2 53604  53.2175   6.0200 0001262  84.1366 275.9770 15.08832193 93874,6917.904,95.438,540.642,538.896,0.0
